{"type": "FeatureCollection", "features": [ {"type": "Feature", "properties": {"norad_id": 39574, "name": "GPM-CORE", "group": "resource", "lat": -33.93549446369273, "lon": -136.16856447879127, "alt_km": 431.7844614926207, "timestamp": "2025-12-03T22:42:32.313726+00:00", "meta": {"OBJECT_NAME": "GPM-CORE", "OBJECT_ID": "2014-009C", "EPOCH": "2025-12-03T07:20:23.006112", "MEAN_MOTION": 15.45167531, "ECCENTRICITY": 0.0010567, "INCLINATION": 64.9754, "RA_OF_ASC_NODE": 244.2978, "ARG_OF_PERICENTER": 268.6884, "MEAN_ANOMALY": 91.3046, "EPHEMERIS_TYPE": 0, "CLASSIFICATION_TYPE": "U", "NORAD_CAT_ID": 39574, "ELEMENT_SET_NO": 999, "REV_AT_EPOCH": 66755, "BSTAR": 0.00041245, "MEAN_MOTION_DOT": 0.00019509, "MEAN_MOTION_DDOT": 0}, "tle": {"line1": "1 39574U 14009C   25337.30582183  .00019509  00000+0  41245-3 0  9994", "line2": "2 39574  64.9754 244.2978 0010567 268.6884  91.3046 15.45167531667552"}}, "geometry": {"type": "Point", "coordinates": [-136.16856447879127, -33.93549446369273]}}, {"type": "Feature", "properties": {"norad_id": 39634, "name": "SENTINEL-1A", "group": "resource", "lat": 37.31775050763825, "lon": -22.97786116795815, "alt_km": 692.4824665969682, "timestamp": "2025-12-03T22:42:32.313735+00:00", "meta": {"OBJECT_NAME": "SENTINEL-1A", "OBJECT_ID": "2014-016A", "EPOCH": "2025-12-03T12:39:43.960032", "MEAN_MOTION": 14.59201491, "ECCENTRICITY": 0.0001251, "INCLINATION": 98.1805, "RA_OF_ASC_NODE": 342.9051, "ARG_OF_PERICENTER": 88.4546, "MEAN_ANOMALY": 271.6797, "EPHEMERIS_TYPE": 0, "CLASSIFICATION_TYPE": "U", "NORAD_CAT_ID": 39634, "ELEMENT_SET_NO": 999, "REV_AT_EPOCH": 62148, "BSTAR": 7.0874e-05, "MEAN_MOTION_DOT": 2.88e-06, "MEAN_MOTION_DDOT": 0}, "tle": {"line1": "1 39634U 14016A   25337.52759213  .00000288  00000+0  70874-4 0  9998", "line2": "2 39634  98.1805 342.9051 0001251  88.4546 271.6797 14.59201491621482"}}, "geometry": {"type": "Point", "coordinates": [-22.97786116795815, 37.31775050763825]}}, {"type": "Feature", "properties": {"norad_id": 39731, "name": "KAZEOSAT 1", "group": "resource", "lat": -14.138699117935406, "lon": -132.06828171416083, "alt_km": 756.4056371790266, "timestamp": "2025-12-03T22:42:32.313744+00:00", "meta": {"OBJECT_NAME": "KAZEOSAT 1", "OBJECT_ID": "2014-024A", "EPOCH": "2025-12-03T11:49:11.542944", "MEAN_MOTION": 14.42053738, "ECCENTRICITY": 0.0001061, "INCLINATION": 98.3444, "RA_OF_ASC_NODE": 49.607, "ARG_OF_PERICENTER": 99.0023, "MEAN_ANOMALY": 261.1287, "EPHEMERIS_TYPE": 0, "CLASSIFICATION_TYPE": "U", "NORAD_CAT_ID": 39731, "ELEMENT_SET_NO": 999, "REV_AT_EPOCH": 61035, "BSTAR": 0.00013428, "MEAN_MOTION_DOT": 3.98e-06, "MEAN_MOTION_DDOT": 0}, "tle": {"line1": "1 39731U 14024A   25337.49249471  .00000398  00000+0  13428-3 0  9994", "line2": "2 39731  98.3444  49.6070 0001061  99.0023 261.1287 14.42053738610353"}}, "geometry": {"type": "Point", "coordinates": [-132.06828171416083, -14.138699117935406]}}, {"type": "Feature", "properties": {"norad_id": 39766, "name": "ALOS-2", "group": "resource", "lat": -23.672092655178126, "lon": 76.41816838044919, "alt_km": 637.2716868141251, "timestamp": "2025-12-03T22:42:32.313753+00:00", "meta": {"OBJECT_NAME": "ALOS-2", "OBJECT_ID": "2014-029A", "EPOCH": "2025-12-03T13:04:39.315072", "MEAN_MOTION": 14.79450558, "ECCENTRICITY": 0.0001522, "INCLINATION": 97.9237, "RA_OF_ASC_NODE": 72.5221, "ARG_OF_PERICENTER": 108.6147, "MEAN_ANOMALY": 251.523, "EPHEMERIS_TYPE": 0, "CLASSIFICATION_TYPE": "U", "NORAD_CAT_ID": 39766, "ELEMENT_SET_NO": 999, "REV_AT_EPOCH": 62265, "BSTAR": 0.00041575, "MEAN_MOTION_DOT": 3.053e-05, "MEAN_MOTION_DDOT": 0}, "tle": {"line1": "1 39766U 14029A   25337.54489948  .00003053  00000+0  41575-3 0  9993", "line2": "2 39766  97.9237  72.5221 0001522 108.6147 251.5230 14.79450558622653"}}, "geometry": {"type": "Point", "coordinates": [76.41816838044919, -23.672092655178126]}}, {"type": "Feature", "properties": {"norad_id": 40010, "name": "KAZEOSAT 2", "group": "resource", "lat": 65.3895015888307, "lon": 165.88074594148284, "alt_km": 611.8029074145516, "timestamp": "2025-12-03T22:42:32.313762+00:00", "meta": {"OBJECT_NAME": "KAZEOSAT 2", "OBJECT_ID": "2014-033A", "EPOCH": "2025-12-03T12:42:29.516256", "MEAN_MOTION": 14.85143352, "ECCENTRICITY": 0.0007247, "INCLINATION": 97.5511, "RA_OF_ASC_NODE": 182.3192, "ARG_OF_PERICENTER": 241.1944, "MEAN_ANOMALY": 118.8545, "EPHEMERIS_TYPE": 0, "CLASSIFICATION_TYPE": "U", "NORAD_CAT_ID": 40010, "ELEMENT_SET_NO": 999, "REV_AT_EPOCH": 61991, "BSTAR": 0.00014562, "MEAN_MOTION_DOT": 1.196e-05, "MEAN_MOTION_DDOT": 0}, "tle": {"line1": "1 40010U 14033A   25337.52950829  .00001196  00000+0  14562-3 0  9993", "line2": "2 40010  97.5511 182.3192 0007247 241.1944 118.8545 14.85143352619910"}}, "geometry": {"type": "Point", "coordinates": [165.88074594148284, 65.3895015888307]}}, {"type": "Feature", "properties": {"norad_id": 40011, "name": "HODOYOSHI-4", "group": "resource", "lat": 78.64031593202925, "lon": 126.00767858872541, "alt_km": 612.2709117364548, "timestamp": "2025-12-03T22:42:32.313771+00:00", "meta": {"OBJECT_NAME": "HODOYOSHI-4", "OBJECT_ID": "2014-033B", "EPOCH": "2025-12-03T12:39:19.267776", "MEAN_MOTION": 14.87425789, "ECCENTRICITY": 0.0022672, "INCLINATION": 97.5415, "RA_OF_ASC_NODE": 166.8651, "ARG_OF_PERICENTER": 232.2352, "MEAN_ANOMALY": 127.6811, "EPHEMERIS_TYPE": 0, "CLASSIFICATION_TYPE": "U", "NORAD_CAT_ID": 40011, "ELEMENT_SET_NO": 999, "REV_AT_EPOCH": 61971, "BSTAR": 0.00032492, "MEAN_MOTION_DOT": 2.902e-05, "MEAN_MOTION_DDOT": 0}, "tle": {"line1": "1 40011U 14033B   25337.52730634  .00002902  00000+0  32492-3 0  9992", "line2": "2 40011  97.5415 166.8651 0022672 232.2352 127.6811 14.87425789619715"}}, "geometry": {"type": "Point", "coordinates": [126.00767858872541, 78.64031593202925]}}, {"type": "Feature", "properties": {"norad_id": 40013, "name": "DEIMOS-2", "group": "resource", "lat": 64.25092438440653, "lon": -162.0510505845609, "alt_km": 582.1049492036473, "timestamp": "2025-12-03T22:42:32.313781+00:00", "meta": {"OBJECT_NAME": "DEIMOS-2", "OBJECT_ID": "2014-033D", "EPOCH": "2025-12-03T12:45:56.952288", "MEAN_MOTION": 14.92903521, "ECCENTRICITY": 7.95e-05, "INCLINATION": 97.6072, "RA_OF_ASC_NODE": 213.6351, "ARG_OF_PERICENTER": 86.44, "MEAN_ANOMALY": 273.6911, "EPHEMERIS_TYPE": 0, "CLASSIFICATION_TYPE": "U", "NORAD_CAT_ID": 40013, "ELEMENT_SET_NO": 999, "REV_AT_EPOCH": 60852, "BSTAR": 0.00036746, "MEAN_MOTION_DOT": 3.756e-05, "MEAN_MOTION_DDOT": 0}, "tle": {"line1": "1 40013U 14033D   25337.53190917  .00003756  00000+0  36746-3 0  9993", "line2": "2 40013  97.6072 213.6351 0000795  86.4400 273.6911 14.92903521608521"}}, "geometry": {"type": "Point", "coordinates": [-162.0510505845609, 64.25092438440653]}}, {"type": "Feature", "properties": {"norad_id": 40015, "name": "HODOYOSHI-3", "group": "resource", "lat": 82.22525510232025, "lon": 42.809385925930926, "alt_km": 629.0025776060083, "timestamp": "2025-12-03T22:42:32.313791+00:00", "meta": {"OBJECT_NAME": "HODOYOSHI-3", "OBJECT_ID": "2014-033F", "EPOCH": "2025-12-03T10:58:29.727264", "MEAN_MOTION": 14.84753679, "ECCENTRICITY": 0.0031834, "INCLINATION": 97.6193, "RA_OF_ASC_NODE": 143.6962, "ARG_OF_PERICENTER": 279.7374, "MEAN_ANOMALY": 80.0247, "EPHEMERIS_TYPE": 0, "CLASSIFICATION_TYPE": "U", "NORAD_CAT_ID": 40015, "ELEMENT_SET_NO": 999, "REV_AT_EPOCH": 61857, "BSTAR": 0.00032694, "MEAN_MOTION_DOT": 2.744e-05, "MEAN_MOTION_DDOT": 0}, "tle": {"line1": "1 40015U 14033F   25337.45728851  .00002744  00000+0  32694-3 0  9994", "line2": "2 40015  97.6193 143.6962 0031834 279.7374  80.0247 14.84753679618578"}}, "geometry": {"type": "Point", "coordinates": [42.809385925930926, 82.22525510232025]}}, {"type": "Feature", "properties": {"norad_id": 40053, "name": "SPOT 7", "group": "resource", "lat": -34.11132968617335, "lon": -145.3059426472949, "alt_km": 697.5911371478433, "timestamp": "2025-12-03T22:42:32.313800+00:00", "meta": {"OBJECT_NAME": "SPOT 7", "OBJECT_ID": "2014-034A", "EPOCH": "2025-12-03T11:51:59.475168", "MEAN_MOTION": 14.60714312, "ECCENTRICITY": 0.0001518, "INCLINATION": 98.0919, "RA_OF_ASC_NODE": 39.7826, "ARG_OF_PERICENTER": 96.9873, "MEAN_ANOMALY": 263.15, "EPHEMERIS_TYPE": 0, "CLASSIFICATION_TYPE": "U", "NORAD_CAT_ID": 40053, "ELEMENT_SET_NO": 999, "REV_AT_EPOCH": 60856, "BSTAR": 0.00019521, "MEAN_MOTION_DOT": 9.06e-06, "MEAN_MOTION_DDOT": 0}, "tle": {"line1": "1 40053U 14034A   25337.49443837  .00000906  00000+0  19521-3 0  9991", "line2": "2 40053  98.0919  39.7826 0001518  96.9873 263.1500 14.60714312608563"}}, "geometry": {"type": "Point", "coordinates": [-145.3059426472949, -34.11132968617335]}}, {"type": "Feature", "properties": {"norad_id": 40072, "name": "SKYSAT-B", "group": "resource", "lat": 28.54680943544635, "lon": -83.39938463875308, "alt_km": 608.3913470115749, "timestamp": "2025-12-03T22:42:32.313809+00:00", "meta": {"OBJECT_NAME": "SKYSAT-B", "OBJECT_ID": "2014-037D", "EPOCH": "2025-12-03T11:16:36.073344", "MEAN_MOTION": 14.87269677, "ECCENTRICITY": 0.0005393, "INCLINATION": 98.3594, "RA_OF_ASC_NODE": 280.6875, "ARG_OF_PERICENTER": 178.8578, "MEAN_ANOMALY": 181.265, "EPHEMERIS_TYPE": 0, "CLASSIFICATION_TYPE": "U", "NORAD_CAT_ID": 40072, "ELEMENT_SET_NO": 999, "REV_AT_EPOCH": 61686, "BSTAR": 0.00034703, "MEAN_MOTION_DOT": 3.069e-05, "MEAN_MOTION_DDOT": 0}, "tle": {"line1": "1 40072U 14037D   25337.46986196  .00003069  00000+0  34703-3 0  9994", "line2": "2 40072  98.3594 280.6875 0005393 178.8578 181.2650 14.87269677616860"}}, "geometry": {"type": "Point", "coordinates": [-83.39938463875308, 28.54680943544635]}}]}